H1 CPF 01  gfz 2021 10 23 00  7961 terrasarx 
H2 0702601  6201 31698    2021 10 23 00 59 42 2021 10 28 00 00 42   120 1 1  0 0 0
H9
10 0 59510  53262.000000  0   -1391469.389   -239143.031  -6748802.429
10 0 59510  53382.000000  0    -794644.154    453395.932  -6833952.721
10 0 59510  53502.000000  0    -172098.910   1127414.657  -6799924.340
10 0 59510  53622.000000  0     464957.873   1770888.573  -6647299.340
10 0 59510  53742.000000  0    1104857.094   2372511.949  -6378700.626
10 0 59510  53862.000000  0    1735679.029   2921893.869  -5998752.494
10 0 59510  53982.000000  0    2345470.917   3409737.054  -5514008.942
10 0 59510  54102.000000  0    2922470.554   3827995.967  -4932850.706
10 0 59510  54222.000000  0    3455331.914   4170013.592  -4265352.354
10 0 59510  54342.000000  0    3933349.855   4430633.890  -3523118.325
10 0 59510  54462.000000  0    4346678.838   4606286.348  -2719089.254
10 0 59510  54582.000000  0    4686539.689   4695039.692  -1867320.402
10 0 59510  54702.000000  0    4945410.126   4696624.192   -982737.876
10 0 59510  54822.000000  0    5117194.307   4612420.237    -80873.675
10 0 59510  54942.000000  0    5197363.971   4445413.312    822412.718
10 0 59510  55062.000000  0    5183070.415   4200117.415   1711219.902
10 0 59510  55182.000000  0    5073224.833   3882467.240   2569893.239
10 0 59510  55302.000000  0    4868541.592   3499680.718   3383310.312
10 0 59510  55422.000000  0    4571543.409   3060096.761   4137154.369
10 0 59510  55542.000000  0    4186530.360   2572992.382   4818170.205
10 0 59510  55662.000000  0    3719514.653   2048384.953   5414398.597
10 0 59510  55782.000000  0    3178118.622   1496823.702   5915385.621
10 0 59510  55902.000000  0    2571443.524    929174.590   6312360.781
10 0 59510  56022.000000  0    1909911.174    356404.518   6598383.075
10 0 59510  56142.000000  0    1205081.955   -210629.250   6768456.379
10 0 59510  56262.000000  0     469450.593   -761384.250   6819613.372
10 0 59510  56382.000000  0    -283776.605  -1285828.930   6750963.397
10 0 59510  56502.000000  0   -1040918.727  -1774624.832   6563706.339
10 0 59510  56622.000000  0   -1788067.872  -2219292.880   6261111.484
10 0 59510  56742.000000  0   -2511342.089  -2612359.817   5848463.649
10 0 59510  56862.000000  0   -3197143.084  -2947485.617   5332979.377
10 0 59510  56982.000000  0   -3832416.757  -3219569.554   4723687.364
10 0 59510  57102.000000  0   -4404906.261  -3424830.179   4031273.968
10 0 59510  57222.000000  0   -4903393.525  -3560858.662   3267899.313
10 0 59510  57342.000000  0   -5317925.041  -3626644.654   2446986.180
10 0 59510  57462.000000  0   -5640017.904  -3622574.669   1582983.296
10 0 59510  57582.000000  0   -5862838.760  -3550401.087    691105.845
10 0 59510  57702.000000  0   -5981351.134  -3413182.063   -212939.396
10 0 59510  57822.000000  0   -5992427.929  -3215195.000  -1113239.112
10 0 59510  57942.000000  0   -5894925.114  -2961824.651  -1993963.794
10 0 59510  58062.000000  0   -5689713.433  -2659428.631  -2839654.098
10 0 59510  58182.000000  0   -5379670.401  -2315185.611  -3635496.961
10 0 59510  58302.000000  0   -4969632.457  -1936929.540  -4367586.903
10 0 59510  58422.000000  0   -4466309.758  -1532974.525  -5023166.986
10 0 59510  58542.000000  0   -3878165.870  -1111934.475  -5590846.284
10 0 59510  58662.000000  0   -3215265.254   -682541.383  -6060789.158
10 0 59510  58782.000000  0   -2489093.628   -253466.944  -6424874.535
10 0 59510  58902.000000  0   -1712354.672    166848.899  -6676824.768
10 0 59510  59022.000000  0    -898746.675    570359.004  -6812302.323
10 0 59510  59142.000000  0     -62724.742    949558.451  -6828976.065
10 0 59510  59262.000000  0     780749.654   1297620.322  -6726556.387
10 0 59510  59382.000000  0    1616469.302   1608514.841  -6506802.147
10 0 59510  59502.000000  0    2429250.374   1877112.892  -6173494.388
10 0 59510  59622.000000  0    3204203.870   2099270.132  -5732377.881
10 0 59510  59742.000000  0    3927005.037   2271890.747  -5191071.019
10 0 59510  59862.000000  0    4584158.281   2392970.836  -4558946.484
10 0 59510  59982.000000  0    5163253.871   2461620.212  -3846979.732
10 0 59510  60102.000000  0    5653208.783   2478061.356  -3067567.186
10 0 59510  60222.000000  0    6044487.857   2443605.713  -2234318.097
10 0 59510  60342.000000  0    6329300.981   2360607.412  -1361819.442
10 0 59510  60462.000000  0    6501767.547   2232394.396   -465379.226
10 0 59510  60582.000000  0    6558046.398   2063178.672    439246.994
10 0 59510  60702.000000  0    6496423.460   1857946.819   1336140.545
10 0 59510  60822.000000  0    6317359.636   1622335.679   2209506.405
10 0 59510  60942.000000  0    6023494.874   1362493.993   3043961.665
10 0 59510  61062.000000  0    5619606.674   1084934.291   3824814.209
10 0 59510  61182.000000  0    5112525.514    796379.271   4538327.518
10 0 59510  61302.000000  0    4511010.355    503606.890   5171963.775
10 0 59510  61422.000000  0    3825588.244    213297.559   5714604.573
10 0 59510  61542.000000  0    3068359.287    -68113.630   6156742.903
10 0 59510  61662.000000  0    2252775.141   -334574.191   6490642.920
10 0 59510  61782.000000  0    1393395.704   -580540.277   6710469.659
10 0 59510  61902.000000  0     505625.681   -801089.485   6812386.493
10 0 59510  62022.000000  0    -394563.671   -992017.675   6794616.955
10 0 59510  62142.000000  0   -1290921.283  -1149918.528   6657472.776
10 0 59510  62262.000000  0   -2167208.349  -1272244.366   6403347.833
10 0 59510  62382.000000  0   -3007490.356  -1357346.631   6036678.572
10 0 59510  62502.000000  0   -3796427.099  -1404496.484   5563873.773
10 0 59510  62622.000000  0   -4519557.454  -1413886.283   4993209.368
10 0 59510  62742.000000  0   -5163570.899  -1386610.595   4334689.016
10 0 59510  62862.000000  0   -5716560.417  -1324626.451   3599872.285
10 0 59510  62982.000000  0   -6168250.536  -1230693.756   2801673.941
10 0 59510  63102.000000  0   -6510197.771  -1108297.806   1954138.578
10 0 59510  63222.000000  0   -6735959.710   -961555.378   1072190.434
10 0 59510  63342.000000  0   -6841223.270   -795106.018    171363.174
10 0 59510  63462.000000  0   -6823890.292   -613991.458   -732481.957
10 0 59510  63582.000000  0   -6684118.777   -423526.437  -1623444.631
10 0 59510  63702.000000  0   -6424317.695   -229164.095  -2485872.890
10 0 59510  63822.000000  0   -6049099.148    -36360.490  -3304644.024
10 0 59510  63942.000000  0   -5565185.860    149560.203  -4065435.139
10 0 59510  64062.000000  0   -4981277.024    323535.210  -4754973.653
10 0 59510  64182.000000  0   -4307878.739    480884.560  -5361264.629
10 0 59510  64302.000000  0   -3557103.386    617421.741  -5873791.872
10 0 59510  64422.000000  0   -2742442.402    729550.084  -6283689.911
10 0 59510  64542.000000  0   -1878519.253    814344.416  -6583884.858
10 0 59510  64662.000000  0    -980826.135    869616.838  -6769206.103
10 0 59510  64782.000000  0     -65448.661    893965.411  -6836464.828
10 0 59510  64902.000000  0     851215.006    886804.684  -6784502.148
10 0 59510  65022.000000  0    1752740.369    848377.944  -6614209.658
10 0 59510  65142.000000  0    2622965.493    779751.410  -6328516.245
10 0 59510  65262.000000  0    3446275.702    682790.311  -5932342.826
10 0 59510  65382.000000  0    4207880.355    560116.600  -5432525.427
10 0 59510  65502.000000  0    4894078.383    415048.901  -4837708.617
10 0 59510  65622.000000  0    5492509.783    251526.497  -4158207.665
10 0 59510  65742.000000  0    5992386.341     74017.374  -3405839.222
10 0 59510  65862.000000  0    6384696.332   -112587.402  -2593724.061
10 0 59510  65982.000000  0    6662380.377   -303091.171  -1736063.496
10 0 59510  66102.000000  0    6820471.356   -492118.278   -847890.967
10 0 59510  66222.000000  0    6856194.060   -674246.288     55194.462
10 0 59510  66342.000000  0    6769022.781   -844141.409    957307.799
10 0 59510  66462.000000  0    6560693.581   -996693.414   1842565.723
10 0 59510  66582.000000  0    6235171.774  -1127146.375   2695375.703
10 0 59510  66702.000000  0    5798571.894  -1231221.462   3500719.779
10 0 59510  66822.000000  0    5259036.391  -1305228.840   4244424.732
10 0 59510  66942.000000  0    4626574.873  -1346166.983   4913415.567
10 0 59510  67062.000000  0    3912868.153  -1351804.801   5495945.782
10 0 59510  67182.000000  0    3131043.265  -1320745.835   5981801.822
10 0 59510  67302.000000  0    2295423.330  -1252474.210   6362477.481
10 0 59510  67422.000000  0    1421259.793  -1147380.900   6631316.979
10 0 59510  67542.000000  0     524449.770  -1006769.851   6783626.103
10 0 59510  67662.000000  0    -378755.202   -832843.086   6816748.239
10 0 59510  67782.000000  0   -1272043.008   -628666.277   6730106.444
10 0 59510  67902.000000  0   -2139333.950   -398114.864   6525212.553
10 0 59510  68022.000000  0   -2965068.613   -145801.174   6205642.690
10 0 59510  68142.000000  0   -3734487.357    123016.099   5776979.992
10 0 59510  68262.000000  0   -4433897.556    402538.555   5246723.315
10 0 59510  68382.000000  0   -5050922.957    686549.207   4624161.949
10 0 59510  68502.000000  0   -5574730.799    968545.900   3920218.114
10 0 59510  68622.000000  0   -5996230.565   1241884.628   3147258.256
10 0 59510  68742.000000  0   -6308241.060   1499929.526   2318877.374
10 0 59510  68862.000000  0   -6505621.947   1736205.728   1449658.312
10 0 59510  68982.000000  0   -6585366.375   1944552.015    554910.393
10 0 59510  69102.000000  0   -6546650.276   2119269.194   -349608.418
10 0 59510  69222.000000  0   -6390836.874   2255259.329  -1247977.989
10 0 59510  69342.000000  0   -6121437.427   2348153.169  -2124404.593
10 0 59510  69462.000000  0   -5744029.522   2394423.027  -2963506.680
10 0 59510  69582.000000  0   -5266133.090   2391477.319  -3750590.918
10 0 59510  69702.000000  0   -4697049.632   2337734.083  -4471910.946
99
